NORAD_CAT_ID,OBJECT_NAME,OBJECT_TYPE,EPOCH,MEAN_MOTION,ECCENTRICITY,INCLINATION,RA_OF_ASC_NODE,ARG_OF_PERICENTER,MEAN_ANOMALY,BSTAR,MEAN_MOTION_DOT,MEAN_MOTION_DDOT,TLE_LINE0,TLE_LINE1,TLE_LINE2,SEMIMAJOR_AXIS,PERIOD,APOGEE,PERIGEE,DECAYED
53401.0,STARLINK-4525,PAYLOAD,2024-07-16 13:18:10,15.08846671,0.0001208,53.2171,302.7279,83.3496,276.7633,-1.6856e-06,-3.15e-06,0.0,0 STARLINK-4525,1 53401U 22097P   24198.55429179 -.00000315  00000-0 -16856-5 0  9991,2 53401  53.2171 302.7279 0001208  83.3496 276.7633 15.08846671107275,6917.86,95.437,540.561,538.889,0.0
53401.0,STARLINK-4525,PAYLOAD,2024-07-17 13:08:58,15.08837332,0.0001253,53.2173,298.2643,83.9597,276.1538,-5.5474e-05,-1.171e-05,0.0,0 STARLINK-4525,1 53401U 22097P   24199.54790359 -.00001171  00000-0 -55474-4 0  9991,2 53401  53.2173 298.2643 0001253  83.9597 276.1538 15.08837332107428,6917.889,95.438,540.62,538.887,0.0
53401.0,STARLINK-4525,PAYLOAD,2024-07-18 12:59:45,15.08848618,0.0001301,53.2178,293.8053,88.3943,271.7198,8.7363e-05,1.103e-05,0.0,0 STARLINK-4525,1 53401U 22097P   24200.54149685  .00001103  00000-0  87363-4 0  9999,2 53401  53.2178 293.8053 0001301  88.3943 271.7198 15.08848618107575,6917.854,95.437,540.619,538.819,0.0
53401.0,STARLINK-4525,PAYLOAD,2024-07-19 12:50:32,15.08842791,0.0001258,53.217,289.3465,79.198,280.9154,0.00019326,2.789e-05,0.0,0 STARLINK-4525,1 53401U 22097P   24201.53509913  .00002789  00000-0  19326-3 0  9997,2 53401  53.2170 289.3465 0001258  79.1980 280.9154 15.08842791107721,6917.872,95.437,540.607,538.867,0.0
53401.0,STARLINK-4525,PAYLOAD,2024-07-19 22:22:51,15.08839948,0.000124,53.2167,287.562,76.349,283.764,0.00013821,1.912e-05,0.0,0 STARLINK-4525,1 53401U 22097P   24201.93254264  .00001912  00000-0  13821-3 0  9998,2 53401  53.2167 287.5620 0001240  76.3490 283.7640 15.08839948108278,6917.881,95.438,540.603,538.888,0.0
53401.0,STARLINK-4525,PAYLOAD,2024-07-20 12:41:19,15.08845161,0.0001284,53.218,284.8886,89.4271,270.6869,9.8641e-05,1.283e-05,0.0,0 STARLINK-4525,1 53401U 22097P   24202.52870012  .00001283  00000-0  98641-4 0  9994,2 53401  53.2180 284.8886 0001284  89.4271 270.6869 15.08845161108369,6917.865,95.437,540.618,538.841,0.0
53401.0,STARLINK-4525,PAYLOAD,2024-07-20 22:13:38,15.08852073,0.0001276,53.2175,283.1041,91.3985,268.7153,-3.807e-05,-8.94e-06,0.0,0 STARLINK-4525,1 53401U 22097P   24202.92613691 -.00000894  00000-0 -38070-4 0  9995,2 53401  53.2175 283.1041 0001276  91.3985 268.7153 15.08852073108424,6917.843,95.437,540.591,538.826,0.0
53401.0,STARLINK-4525,PAYLOAD,2024-07-21 04:35:11,15.08841053,0.0002051,53.217,281.913,85.0364,275.0862,6.8668e-06,-1.79e-06,0.0,0 STARLINK-4525,1 53401U 22097P   24203.19110668 -.00000179  00000-0  68668-5 0  9993,2 53401  53.2170 281.9130 0002051  85.0364 275.0862 15.08841053107970,6917.877,95.437,541.161,538.323,0.0
53401.0,STARLINK-4525,PAYLOAD,2024-07-21 12:32:07,15.08834358,0.0001535,53.2174,280.4255,84.0759,276.0408,-5.4122e-05,-1.149e-05,0.0,0 STARLINK-4525,1 53401U 22097P   24203.52231285 -.00001149  00000-0 -54122-4 0  9997,2 53401  53.2174 280.4255 0001535  84.0759 276.0408 15.08834358108023,6917.898,95.438,540.825,538.701,0.0
53401.0,STARLINK-4525,PAYLOAD,2024-07-22 09:12:08,15.08840584,0.0001539,53.2173,276.5626,106.3385,253.7777,0.00010409,1.369e-05,0.0,0 STARLINK-4525,1 53401U 22097P   24204.38343510  .00001369  00000-0  10409-3 0  9998,2 53401  53.2173 276.5626 0001539 106.3385 253.7777 15.08840584108644,6917.879,95.438,540.808,538.679,0.0
53401.0,STARLINK-4525,PAYLOAD,2024-07-23 10:38:18,15.08847245,0.0001473,53.2149,271.8008,88.141,271.9751,0.00030797,4.618e-05,0.0,0 STARLINK-4525,1 53401U 22097P   24205.44326651  .00004618  00000-0  30797-3 0  9995,2 53401  53.2149 271.8008 0001473  88.1410 271.9751 15.08847245108311,6917.858,95.437,540.742,538.704,0.0
53401.0,STARLINK-4525,PAYLOAD,2024-07-23 13:49:04,15.08854495,0.0001823,53.2152,271.2042,91.5428,268.5773,0.00029784,4.457e-05,0.0,0 STARLINK-4525,1 53401U 22097P   24205.57574183  .00004457  00000-0  29784-3 0  9999,2 53401  53.2152 271.2042 0001823  91.5428 268.5773 15.08854495108820,6917.836,95.437,540.962,538.44,0.0
53401.0,STARLINK-4525,PAYLOAD,2024-07-24 04:07:33,15.08847981,0.0002088,53.2148,268.5292,92.2799,267.8432,4.4631e-05,4.22e-06,0.0,0 STARLINK-4525,1 53401U 22097P   24206.17191585  .00000422  00000-0  44631-4 0  9994,2 53401  53.2148 268.5292 0002088  92.2799 267.8432 15.08847981108426,6917.856,95.437,541.165,538.277,0.0
53401.0,STARLINK-4525,PAYLOAD,2024-07-24 10:29:06,15.0884257,0.0001091,53.2141,267.339,79.0945,281.017,-2.3442e-05,-6.61e-06,0.0,0 STARLINK-4525,1 53401U 22097P   24206.43687899 -.00000661  00000-0 -23442-4 0  9995,2 53401  53.2141 267.3390 0001091  79.0945 281.0170 15.08842570108464,6917.873,95.437,540.492,538.983,0.0
53401.0,STARLINK-4525,PAYLOAD,2024-07-25 10:19:51,15.08859952,0.0001441,53.217,262.8769,104.2369,255.8783,4.5768e-06,-2.15e-06,0.0,0 STARLINK-4525,1 53401U 22097P   24207.43046087 -.00000215  00000-0  45768-5 0  9994,2 53401  53.2170 262.8769 0001441 104.2369 255.8783 15.08859952108614,6917.819,95.436,540.681,538.688,0.0
53401.0,STARLINK-4525,PAYLOAD,2024-07-26 03:49:06,15.08842844,0.0001527,53.2167,259.6095,98.8724,261.2442,8.9272e-05,1.133e-05,0.0,0 STARLINK-4525,1 53401U 22097P   24208.15910630  .00001133  00000-0  89272-4 0  9994,2 53401  53.2167 259.6095 0001527  98.8724 261.2442 15.08842844108721,6917.872,95.437,540.793,538.68,0.0
53401.0,STARLINK-4525,PAYLOAD,2024-07-26 11:46:02,15.08842073,0.0001341,53.2165,258.1183,106.8242,253.2897,9.1984e-05,1.176e-05,0.0,0 STARLINK-4525,1 53401U 22097P   24208.49030550  .00001176  00000-0  91984-4 0  9995,2 53401  53.2165 258.1183 0001341 106.8242 253.2897 15.08842073109269,6917.874,95.437,540.667,538.811,0.0
53401.0,STARLINK-4525,PAYLOAD,2024-07-27 06:50:39,15.0884402,0.0001296,53.2156,254.5511,103.8193,256.2943,1.1101e-05,-1.11e-06,0.0,0 STARLINK-4525,1 53401U 22097P   24209.28518474 -.00000111  00000-0  11101-4 0  9991,2 53401  53.2156 254.5511 0001296 103.8193 256.2943 15.08844020109387,6917.868,95.437,540.63,538.837,0.0
53401.0,STARLINK-4525,PAYLOAD,2024-07-27 10:01:26,15.08845439,0.000131,53.2157,253.9565,103.6068,256.507,1.9229e-05,1.8e-07,0.0,0 STARLINK-4525,1 53401U 22097P   24209.41766288  .00000018  00000-0  19229-4 0  9998,2 53401  53.2157 253.9565 0001310 103.6068 256.5070 15.08845439108913,6917.864,95.437,540.635,538.823,0.0
53401.0,STARLINK-4525,PAYLOAD,2024-07-28 09:52:14,15.08828548,0.000133,53.2154,249.4996,104.5542,255.5598,7.6163e-06,-1.67e-06,0.0,0 STARLINK-4525,1 53401U 22097P   24210.41127549 -.00000167  00000-0  76163-5 0  9998,2 53401  53.2154 249.4996 0001330 104.5542 255.5598 15.08828548109060,6917.915,95.438,540.7,538.86,0.0
53401.0,STARLINK-4525,PAYLOAD,2024-07-29 11:18:23,15.08840798,0.0001309,53.2161,244.7405,92.1389,267.9753,6.6615e-05,7.72e-06,0.0,0 STARLINK-4525,1 53401U 22097P   24211.47110944  .00000772  00000-0  66615-4 0  9997,2 53401  53.2161 244.7405 0001309  92.1389 267.9753 15.08840798109227,6917.878,95.438,540.649,538.837,0.0
53401.0,STARLINK-4525,PAYLOAD,2024-07-29 19:15:19,15.08836712,0.0001276,53.2161,243.253,87.3155,272.7983,7.3015e-05,8.74e-06,0.0,0 STARLINK-4525,1 53401U 22097P   24211.80231246  .00000874  00000-0  73015-4 0  9998,2 53401  53.2161 243.2530 0001276  87.3155 272.7983 15.08836712109769,6917.89,95.438,540.638,538.873,0.0
53401.0,STARLINK-4525,PAYLOAD,2024-07-30 09:33:48,15.08837574,0.0001287,53.2158,240.5765,86.5549,273.559,9.9363e-05,1.294e-05,0.0,0 STARLINK-4525,1 53401U 22097P   24212.39847324  .00001294  00000-0  99363-4 0  9994,2 53401  53.2158 240.5765 0001287  86.5549 273.5590 15.08837574109361,6917.888,95.438,540.643,538.862,0.0
53401.0,STARLINK-4525,PAYLOAD,2024-07-30 19:06:06,15.08838486,0.0001296,53.2157,238.7922,85.8624,274.2516,8.6969e-05,1.096e-05,0.0,0 STARLINK-4525,1 53401U 22097P   24212.79591390  .00001096  00000-0  86969-4 0  9995,2 53401  53.2157 238.7922 0001296  85.8624 274.2516 15.08838486109910,6917.885,95.438,540.647,538.853,0.0
53401.0,STARLINK-4525,PAYLOAD,2024-07-31 07:49:12,15.08839468,0.0001329,53.2154,236.4135,87.0142,273.1002,2.2644e-05,7.2e-07,0.0,0 STARLINK-4525,1 53401U 22097P   24213.32583649  .00000072  00000-0  22644-4 0  9996,2 53401  53.2154 236.4135 0001329  87.0142 273.1002 15.08839468109991,6917.882,95.438,540.666,538.828,0.0
53401.0,STARLINK-4525,PAYLOAD,2024-07-31 18:56:54,15.08841261,0.0001318,53.2154,234.3316,87.4446,272.6697,4.374e-05,4.08e-06,0.0,0 STARLINK-4525,1 53401U 22097P   24213.78951445  .00000408  00000-0  43740-4 0  9992,2 53401  53.2154 234.3316 0001318  87.4446 272.6697 15.08841261109570,6917.877,95.437,540.653,538.83,0.0
53401.0,STARLINK-4525,PAYLOAD,2024-08-01 10:50:44,15.08846837,0.000131,53.2152,231.3561,91.9417,268.1726,9.8183e-05,1.275e-05,0.0,0 STARLINK-4525,1 53401U 22097P   24214.45190840  .00001275  00000-0  98183-4 0  9995,2 53401  53.2152 231.3561 0001310  91.9417 268.1726 15.08846837110161,6917.859,95.437,540.631,538.818,0.0
53401.0,STARLINK-4525,PAYLOAD,2024-08-02 04:19:59,15.08841477,0.0001307,53.2149,228.0843,93.1543,266.9599,8.9842e-05,1.142e-05,0.0,0 STARLINK-4525,1 53401U 22097P   24215.18055105  .00001142  00000-0  89842-4 0  9995,2 53401  53.2149 228.0843 0001307  93.1543 266.9599 15.08841477109788,6917.876,95.437,540.645,538.837,0.0
53401.0,STARLINK-4525,PAYLOAD,2024-08-02 10:41:31,15.08845242,0.0001319,53.2146,226.8958,88.3943,271.7201,9.1822e-05,1.174e-05,0.0,0 STARLINK-4525,1 53401U 22097P   24215.44550857  .00001174  00000-0  91822-4 0  9994,2 53401  53.2146 226.8958 0001319  88.3943 271.7201 15.08845242110310,6917.864,95.437,540.642,538.817,0.0
53401.0,STARLINK-4525,PAYLOAD,2024-08-03 04:10:46,15.08839908,0.0001366,53.2145,223.6234,91.9112,268.2036,-3.0359e-05,-7.71e-06,0.0,0 STARLINK-4525,1 53401U 22097P   24216.17415497 -.00000771  00000-0 -30359-4 0  9997,2 53401  53.2145 223.6234 0001366  91.9112 268.2036 15.08839908109936,6917.881,95.438,540.691,538.801,0.0
